{"type": "FeatureCollection", "features": [ {"type": "Feature", "properties": {"norad_id": 45358, "name": "COSMOS 2545 (760)", "group": "glo-ops", "lat": -60.30241960902869, "lon": -164.6704934867672, "alt_km": 19107.572607712038, "timestamp": "2025-12-27T19:21:59.012159+00:00", "meta": {"OBJECT_NAME": "COSMOS 2545 (760)", "OBJECT_ID": "2020-018A", "EPOCH": "2025-12-27T00:08:46.380768", "MEAN_MOTION": 2.13102633, "ECCENTRICITY": 0.00112617, "INCLINATION": 64.4611, "RA_OF_ASC_NODE": 318.4699, "ARG_OF_PERICENTER": 250.7863, "MEAN_ANOMALY": 109.0965, "EPHEMERIS_TYPE": 0, "CLASSIFICATION_TYPE": "U", "NORAD_CAT_ID": 45358, "ELEMENT_SET_NO": 999, "REV_AT_EPOCH": 4499, "BSTAR": 0, "MEAN_MOTION_DOT": -3.8e-07, "MEAN_MOTION_DDOT": 0}, "tle": {"line1": "1 45358U 20018A   25361.00609237 -.00000038  00000+0  00000+0 0  9990", "line2": "2 45358  64.4611 318.4699 0011261 250.7863 109.0965  2.13102633 44998"}}, "geometry": {"type": "Point", "coordinates": [-164.6704934867672, -60.30241960902869]}}, {"type": "Feature", "properties": {"norad_id": 46805, "name": "COSMOS 2547 (705K)", "group": "glo-ops", "lat": 58.109019391790774, "lon": -31.619352892663706, "alt_km": 19130.732843878115, "timestamp": "2025-12-27T19:21:59.012170+00:00", "meta": {"OBJECT_NAME": "COSMOS 2547 (705K)", "OBJECT_ID": "2020-075A", "EPOCH": "2025-12-27T04:39:45.573408", "MEAN_MOTION": 2.13100125, "ECCENTRICITY": 0.0006076, "INCLINATION": 64.597, "RA_OF_ASC_NODE": 198.2135, "ARG_OF_PERICENTER": 227.2571, "MEAN_ANOMALY": 132.747, "EPHEMERIS_TYPE": 0, "CLASSIFICATION_TYPE": "U", "NORAD_CAT_ID": 46805, "ELEMENT_SET_NO": 999, "REV_AT_EPOCH": 4024, "BSTAR": 0, "MEAN_MOTION_DOT": 1.2e-06, "MEAN_MOTION_DDOT": 0}, "tle": {"line1": "1 46805U 20075A   25361.19427747  .00000120  00000+0  00000+0 0  9996", "line2": "2 46805  64.5970 198.2135 0006076 227.2571 132.7470  2.13100125 40249"}}, "geometry": {"type": "Point", "coordinates": [-31.619352892663706, 58.109019391790774]}}, {"type": "Feature", "properties": {"norad_id": 52984, "name": "COSMOS 2557 (706K)", "group": "glo-ops", "lat": -15.062627754457173, "lon": -46.89910254038023, "alt_km": 19117.529588843587, "timestamp": "2025-12-27T19:21:59.012180+00:00", "meta": {"OBJECT_NAME": "COSMOS 2557 (706K)", "OBJECT_ID": "2022-075A", "EPOCH": "2025-12-25T22:50:27.414816", "MEAN_MOTION": 2.13102015, "ECCENTRICITY": 0.00135372, "INCLINATION": 64.4024, "RA_OF_ASC_NODE": 320.5875, "ARG_OF_PERICENTER": 278.4992, "MEAN_ANOMALY": 81.3515, "EPHEMERIS_TYPE": 0, "CLASSIFICATION_TYPE": "U", "NORAD_CAT_ID": 52984, "ELEMENT_SET_NO": 999, "REV_AT_EPOCH": 2702, "BSTAR": 0, "MEAN_MOTION_DOT": -3.5e-07, "MEAN_MOTION_DDOT": 0}, "tle": {"line1": "1 52984U 22075A   25359.95170619 -.00000035  00000+0  00000+0 0  9993", "line2": "2 52984  64.4024 320.5875 0013537 278.4992  81.3515  2.13102015 27029"}}, "geometry": {"type": "Point", "coordinates": [-46.89910254038023, -15.062627754457173]}}, {"type": "Feature", "properties": {"norad_id": 54031, "name": "COSMOS 2559 (707K)", "group": "glo-ops", "lat": 49.98812285298656, "lon": 105.74799925421085, "alt_km": 19114.06316365902, "timestamp": "2025-12-27T19:21:59.012190+00:00", "meta": {"OBJECT_NAME": "COSMOS 2559 (707K)", "OBJECT_ID": "2022-130A", "EPOCH": "2025-12-27T04:17:20.598432", "MEAN_MOTION": 2.13101168, "ECCENTRICITY": 0.0011445, "INCLINATION": 64.3739, "RA_OF_ASC_NODE": 320.6332, "ARG_OF_PERICENTER": 191.4808, "MEAN_ANOMALY": 168.4977, "EPHEMERIS_TYPE": 0, "CLASSIFICATION_TYPE": "U", "NORAD_CAT_ID": 54031, "ELEMENT_SET_NO": 999, "REV_AT_EPOCH": 2502, "BSTAR": 0, "MEAN_MOTION_DOT": -3.9e-07, "MEAN_MOTION_DDOT": 0}, "tle": {"line1": "1 54031U 22130A   25361.17871063 -.00000039  00000+0  00000+0 0  9992", "line2": "2 54031  64.3739 320.6332 0011445 191.4808 168.4977  2.13101168 25026"}}, "geometry": {"type": "Point", "coordinates": [105.74799925421085, 49.98812285298656]}}, {"type": "Feature", "properties": {"norad_id": 54377, "name": "COSMOS 2564 (761)", "group": "glo-ops", "lat": -52.70509404467901, "lon": 56.72703819570363, "alt_km": 19118.702577839973, "timestamp": "2025-12-27T19:21:59.012200+00:00", "meta": {"OBJECT_NAME": "COSMOS 2564 (761)", "OBJECT_ID": "2022-161A", "EPOCH": "2025-12-27T00:32:50.727840", "MEAN_MOTION": 2.13101958, "ECCENTRICITY": 0.00085395, "INCLINATION": 64.7392, "RA_OF_ASC_NODE": 198.4243, "ARG_OF_PERICENTER": 203.4322, "MEAN_ANOMALY": 156.5843, "EPHEMERIS_TYPE": 0, "CLASSIFICATION_TYPE": "U", "NORAD_CAT_ID": 54377, "ELEMENT_SET_NO": 999, "REV_AT_EPOCH": 2396, "BSTAR": 0, "MEAN_MOTION_DOT": 1.19e-06, "MEAN_MOTION_DDOT": 0}, "tle": {"line1": "1 54377U 22161A   25361.02280935  .00000119  00000+0  00000+0 0  9993", "line2": "2 54377  64.7392 198.4243 0008539 203.4322 156.5843  2.13101958 23963"}}, "geometry": {"type": "Point", "coordinates": [56.72703819570363, -52.70509404467901]}}, {"type": "Feature", "properties": {"norad_id": 57517, "name": "COSMOS 2569 (703K)", "group": "glo-ops", "lat": -45.00439397196798, "lon": -74.08552763782347, "alt_km": 19119.42472786541, "timestamp": "2025-12-27T19:21:59.012210+00:00", "meta": {"OBJECT_NAME": "COSMOS 2569 (703K)", "OBJECT_ID": "2023-114A", "EPOCH": "2025-12-27T00:52:02.174592", "MEAN_MOTION": 2.13103907, "ECCENTRICITY": 0.0011067, "INCLINATION": 65.2014, "RA_OF_ASC_NODE": 78.4303, "ARG_OF_PERICENTER": 287.3137, "MEAN_ANOMALY": 72.6114, "EPHEMERIS_TYPE": 0, "CLASSIFICATION_TYPE": "U", "NORAD_CAT_ID": 57517, "ELEMENT_SET_NO": 999, "REV_AT_EPOCH": 1859, "BSTAR": 0, "MEAN_MOTION_DOT": -1.2e-07, "MEAN_MOTION_DDOT": 0}, "tle": {"line1": "1 57517U 23114A   25361.03613628 -.00000012  00000+0  00000+0 0  9994", "line2": "2 57517  65.2014  78.4303 0011067 287.3137  72.6114  2.13103907 18596"}}, "geometry": {"type": "Point", "coordinates": [-74.08552763782347, -45.00439397196798]}}, {"type": "Feature", "properties": {"norad_id": 63130, "name": "COSMOS 2584 (704K)", "group": "glo-ops", "lat": -37.05450634423529, "lon": 58.029550397915166, "alt_km": 19137.1976510615, "timestamp": "2025-12-27T19:21:59.012220+00:00", "meta": {"OBJECT_NAME": "COSMOS 2584 (704K)", "OBJECT_ID": "2025-042A", "EPOCH": "2025-12-24T02:34:25.549824", "MEAN_MOTION": 2.13102981, "ECCENTRICITY": 0.00077651, "INCLINATION": 64.9819, "RA_OF_ASC_NODE": 78.7588, "ARG_OF_PERICENTER": 220.6893, "MEAN_ANOMALY": 139.3012, "EPHEMERIS_TYPE": 0, "CLASSIFICATION_TYPE": "U", "NORAD_CAT_ID": 63130, "ELEMENT_SET_NO": 999, "REV_AT_EPOCH": 631, "BSTAR": 0, "MEAN_MOTION_DOT": 1e-08, "MEAN_MOTION_DDOT": 0}, "tle": {"line1": "1 63130U 25042A   25358.10724016  .00000001  00000+0  00000+0 0  9999", "line2": "2 63130  64.9819  78.7588 0007765 220.6893 139.3012  2.13102981  6316"}}, "geometry": {"type": "Point", "coordinates": [58.029550397915166, -37.05450634423529]}}, {"type": "Feature", "properties": {"norad_id": 65590, "name": "COSMOS 2596 (708K)", "group": "glo-ops", "lat": 61.67532807124028, "lon": 22.051129583400282, "alt_km": 19145.925046700868, "timestamp": "2025-12-27T19:21:59.012230+00:00", "meta": {"OBJECT_NAME": "COSMOS 2596 (708K)", "OBJECT_ID": "2025-206B", "EPOCH": "2025-12-27T06:55:12.849888", "MEAN_MOTION": 2.13100119, "ECCENTRICITY": 0.0014053, "INCLINATION": 64.7362, "RA_OF_ASC_NODE": 320.9699, "ARG_OF_PERICENTER": 307.7312, "MEAN_ANOMALY": 91.0332, "EPHEMERIS_TYPE": 0, "CLASSIFICATION_TYPE": "U", "NORAD_CAT_ID": 65590, "ELEMENT_SET_NO": 999, "REV_AT_EPOCH": 225, "BSTAR": 0, "MEAN_MOTION_DOT": -3.8e-07, "MEAN_MOTION_DDOT": 0}, "tle": {"line1": "1 65590U 25206B   25361.28834317 -.00000038  00000+0  00000+0 0  9993", "line2": "2 65590  64.7362 320.9699 0014053 307.7312  91.0332  2.13100119  2254"}}, "geometry": {"type": "Point", "coordinates": [22.051129583400282, 61.67532807124028]}}]}